ONEWEB-0055             
1 45443U 20020V   23160.69969005 -.00000349  00000+0 -10215-2 0  9998
2 45443  87.8914 240.2509 0001964  98.3010 261.8341 13.11417744157980
ONEWEB-0093             
1 45444U 20020W   23160.67319815  .00000547  00000+0  15084-2 0  9992
2 45444  87.8908 240.2500 0002041  89.3505 270.7857 13.11419530158045
ONEWEB-0029             
1 45445U 20020X   23160.69546503 -.00000200  00000+0 -59941-3 0  9990
2 45445  87.8913 240.2470 0002185  94.4269 265.7108 13.11414023158024
ONEWEB-0068             
1 45446U 20020Y   23160.66578603  .00000464  00000+0  12731-2 0  9999
2 45446  87.8909 240.2484 0002085  87.9397 272.1970 13.11417491157966
ONEWEB-0046             
1 45447U 20020Z   23160.66260525  .00000361  00000+0  98316-3 0  9991
2 45447  87.8909 240.2608 0002211 100.6349 259.5028 13.11417602157974
ONEWEB-0063             
1 45448U 20020AA  23160.69228363 -.00000071  00000+0 -23696-3 0  9998
2 45448  87.8911 240.2444 0002281 104.7554 255.3827 13.11414631158067
ONEWEB-0019             
1 45449U 20020AB  23160.66685939  .00000513  00000+0  14127-2 0  9999
2 45449  87.8913 240.2532 0001778 102.4238 257.7089 13.11420327157909
ONEWEB-0094             
1 45450U 20020AC  23160.87577894  .00000100  00000+0  22523-3 0  9996
2 45450  87.9118 225.1308 0002077  95.2731 264.8637 13.17651367161013
ONEWEB-0087             
1 45451U 20020AD  23160.47185837 -.00000504  00000+0 -14577-2 0  9994
2 45451  87.8983 240.2397 0002346  92.7963 267.3434 13.11414988157925
ONEWEB-0082             
1 45452U 20020AE  23160.47397284 -.00000500  00000+0 -14461-2 0  9994
2 45452  87.8916 240.2632 0001966  95.0733 265.0619 13.11417376158017
ONEWEB-0050             
1 45453U 20020AF  23160.66545909  .00005062  00000+0  39528-3 0  9993
2 45453  87.5350 127.9595 0025160 353.1255   6.9629 15.00674102175772
ONEWEB-0034             
1 45454U 20020AG  23160.64563188 -.00000307  00000+0 -90211-3 0  9996
2 45454  87.8917 240.2478 0002129  97.6015 262.5355 13.11419855157956
ONEWEB-0060             
1 45455U 20020AH  23160.65308011  .00000026  00000+0  36339-4 0  9998
2 45455  87.8913 240.2518 0002079  98.8167 261.3196 13.11421239157918
ONEWEB-0086             
1 45456U 20020AJ  23160.67109512  .00000547  00000+0  15067-2 0  9997
2 45456  87.8915 240.2458 0002123  92.7474 267.3897 13.11416171157977
ONEWEB-0088             
1 45457U 20020AK  23160.64775452 -.00000447  00000+0 -12963-2 0  9990
2 45457  87.8907 240.2382 0002223  97.7138 262.4242 13.11418154157904
ONEWEB-0102             
1 47258U 20100A   23160.83014012  .00000295  00000+0  78467-3 0  9990
2 47258  87.9002 209.9251 0001732  92.6516 267.4811 13.12444051120001
ONEWEB-0109             
1 47259U 20100B   23160.84071803 -.00000069  00000+0 -22585-3 0  9994
2 47259  87.9019 209.9274 0002114  94.0671 266.0699 13.12443045119838
ONEWEB-0110             
1 47260U 20100C   23160.86400997 -.00000371  00000+0 -10676-2 0  9991
2 47260  87.9016 209.8915 0001892  90.5837 269.5508 13.12444160120002
ONEWEB-0111             
1 47261U 20100D   23160.66707996  .00000416  00000+0  11215-2 0  9997
2 47261  87.9016 209.9140 0001910  94.3780 265.7567 13.12440550119813
ONEWEB-0114             
1 47262U 20100E   23160.54636412 -.00000385  00000+0 -11051-2 0  9994
2 47262  87.9019 209.9642 0001618 107.3753 252.7553 13.12441607119752
ONEWEB-0117             
1 47263U 20100F   23160.84284080 -.00000142  00000+0 -42893-3 0  9998
2 47263  87.9022 209.9359 0002106  95.1499 264.9870 13.12443008119806
ONEWEB-0118             
1 47264U 20100G   23160.87461205 -.00000003  00000+0 -42349-4 0  9991
2 47264  87.9003 209.8791 0002130 114.8160 245.3191 13.12442096120005
ONEWEB-0119             
1 47265U 20100H   23160.82592230  .00000473  00000+0  12804-2 0  9990
2 47265  87.9001 209.9258 0002064  91.1350 269.0015 13.12441841119976
ONEWEB-0120             
1 47266U 20100J   23160.85660690 -.00000428  00000+0 -12252-2 0  9999
2 47266  87.9006 209.9072 0001986 101.1659 258.9693 13.12442889120000
ONEWEB-0121             
1 47267U 20100K   23160.83860007  .00000037  00000+0  67576-4 0  9997
2 47267  87.9013 209.9065 0002162  91.0628 269.0748 13.12442615119910
ONEWEB-0122             
1 47268U 20100L   23160.83227110  .00000429  00000+0  11573-2 0  9999
2 47268  87.9018 209.9076 0001873  92.8685 267.2658 13.12441550119825
ONEWEB-0123             
1 47269U 20100M   23160.82802407  .00000322  00000+0  86057-3 0  9999
2 47269  87.9004 209.9240 0002078  95.8150 264.3215 13.12441541119964
ONEWEB-0124             
1 47270U 20100N   23160.89155360  .00000458  00000+0  12377-2 0  9990
2 47270  87.9016 209.9001 0002234  85.1256 275.0127 13.12444128119850
ONEWEB-0125             
1 47271U 20100P   23160.63953012 -.00000317  00000+0 -91533-3 0  9991
2 47271  87.9019 209.9689 0002489  99.5412 260.5998 13.12444448119884
ONEWEB-0126             
1 47272U 20100Q   23160.89472618  .00000433  00000+0  11685-2 0  9994
2 47272  87.9017 209.9134 0001928  96.3322 263.8026 13.12443104119987
ONEWEB-0127             
1 47273U 20100R   23160.55271882 -.00000345  00000+0 -99395-3 0  9997
2 47273  87.9004 209.9666 0001971  97.2661 262.8691 13.12441739119965
ONEWEB-0128             
1 47274U 20100S   23160.87884860  .00000166  00000+0  42607-3 0  9992
2 47274  87.9012 209.8817 0001920  85.1310 275.0038 13.12444327120029
ONEWEB-0129             
1 47275U 20100T   23160.85978928 -.00000429  00000+0 -12290-2 0  9998
2 47275  87.9016 209.9318 0001354 150.1458 209.9748 13.12442918119956
ONEWEB-0130             
1 47276U 20100U   23160.88521720  .00000235  00000+0  61702-3 0  9992
2 47276  87.9017 209.9213 0002046  92.2976 267.8387 13.12444067119928
ONEWEB-0131             
1 47277U 20100V   23160.88309767  .00000276  00000+0  73070-3 0  9994
2 47277  87.9017 209.8659 0002114  89.0012 271.1359 13.12440952119963
ONEWEB-0132             
1 47278U 20100W   23160.83648134  .00000251  00000+0  66347-3 0  9996
2 47278  87.9013 209.8767 0001834  99.0451 261.0885 13.12443088119859
ONEWEB-0133             
1 47279U 20100X   23160.85342850 -.00000364  00000+0 -10483-2 0  9991
2 47279  87.9010 209.9083 0002099  92.8277 267.3091 13.12444592120019
ONEWEB-0134             
1 47280U 20100Y   23160.82166602  .00000435  00000+0  11729-2 0  9990
2 47280  87.9014 209.9011 0001818  88.6179 271.5158 13.12442862119981
ONEWEB-0135             
1 47281U 20100Z   23160.86612752 -.00000254  00000+0 -74216-3 0  9999
2 47281  87.9002 209.9012 0001895  94.1634 265.9711 13.12444907120013
ONEWEB-0136             
1 47282U 20100AA  23160.88732452  .00000397  00000+0  10685-2 0  9997
2 47282  87.9017 209.9279 0001507  85.5408 274.5893 13.12444952119945
ONEWEB-0137             
1 47283U 20100AB  23160.84707319 -.00000255  00000+0 -74417-3 0  9997
2 47283  87.9018 209.9018 0002033  99.5728 260.5631 13.12444367119847
ONEWEB-0138             
1 47284U 20100AC  23160.82378404  .00000459  00000+0  12404-2 0  9996
2 47284  87.9017 209.9173 0001962  95.1493 264.9860 13.12440563119925
ONEWEB-0139             
1 47285U 20100AD  23160.87249120 -.00000109  00000+0 -33820-3 0  9994
2 47285  87.9002 209.9431 0001946  90.3782 269.7569 13.12442409120008
ONEWEB-0140             
1 47286U 20100AE  23160.89368873  .00000354  00000+0  94986-3 0  9994
2 47286  87.9018 209.8779 0001930  91.7761 268.3589 13.12442757119972
ONEWEB-0141             
1 47287U 20100AF  23160.83968192 -.00000029  00000+0 -11528-3 0  9991
2 47287  87.9017 209.8865 0002315 103.1778 256.9609 13.12439336119955
ONEWEB-0142             
1 47288U 20100AG  23160.83119568  .00000163  00000+0  41702-3 0  9991
2 47288  87.9020 209.9401 0001990  97.3953 262.7402 13.12439269119944
ONEWEB-0143             
1 47289U 20100AH  23160.86191487 -.00000391  00000+0 -11211-2 0  9991
2 47289  87.9019 209.8941 0002151  94.8337 265.3038 13.12441973119926
ONEWEB-0144             
1 47290U 20100AJ  23160.83438269  .00000082  00000+0  19227-3 0  9993
2 47290  87.9018 209.9156 0001657  98.4289 261.7028 13.12441626119847
ONEWEB-0145             
1 47291U 20100AK  23160.88094745  .00000155  00000+0  39686-3 0  9998
2 47291  87.9010 209.9012 0002045  97.8243 262.3117 13.12445219120048
ONEWEB-0146             
1 47292U 20100AL  23160.87673016  .00000030  00000+0  47817-4 0  9990
2 47292  87.9021 209.9230 0002638  90.5581 269.5849 13.12442376119956
ONEWEB-0147             
1 47293U 20100AM  23160.84495854 -.00000260  00000+0 -75872-3 0  9998
2 47293  87.9017 209.8884 0001662  86.8206 273.3113 13.12442263119844
ONEWEB-0115             
1 48042U 21025A   23160.74296139  .00000336  00000+0  88638-3 0  9998
2 48042  87.9050 179.6469 0002252  86.2365 273.9022 13.13469995108747
ONEWEB-0152             
1 48043U 21025B   23160.52711060 -.00000054  00000+0 -18151-3 0  9992
2 48043  87.9049 179.6754 0002009  85.3666 274.7692 13.13470545108674
ONEWEB-0153             
1 48044U 21025C   23160.80855897  .00000318  00000+0  83576-3 0  9995
2 48044  87.9053 179.6121 0001970  92.0696 268.0659 13.13469368108706
ONEWEB-0154             
1 48045U 21025D   23160.80642145  .00000288  00000+0  75436-3 0  9998
2 48045  87.9048 179.6221 0002021  90.1778 269.9583 13.13472748108667
ONEWEB-0116             
1 48046U 21025E   23160.54405491 -.00000369  00000+0 -10442-2 0  9998
2 48046  87.9042 179.6501 0002343  86.8130 273.3267 13.13468258108775
ONEWEB-0150             
1 48047U 21025F   23160.82126332  .00000548  00000+0  14653-2 0  9999
2 48047  87.9045 179.6165 0001964  96.0210 264.1143 13.13469538108701
ONEWEB-0107             
1 48048U 21025G   23160.82337143  .00000265  00000+0  69211-3 0  9991
2 48048  87.9046 179.6148 0001857 101.7460 258.3878 13.13469492108682
ONEWEB-0101             
1 48049U 21025H   23160.55885638 -.00000102  00000+0 -31347-3 0  9990
2 48049  87.9047 179.6760 0001829  90.5684 269.5655 13.13470856108623
